{
  "links" : {
    "next" : "https://api.nasa.gov/neo/rest/v1/feed?start_date=2011-03-09&end_date=2011-03-09&detailed=true&api_key=t0TVs3DtDT2H8Oy2Zy8m2eVrNsAVKAexjcZXUckd",
    "prev" : "https://api.nasa.gov/neo/rest/v1/feed?start_date=2011-03-07&end_date=2011-03-07&detailed=true&api_key=t0TVs3DtDT2H8Oy2Zy8m2eVrNsAVKAexjcZXUckd",
    "self" : "https://api.nasa.gov/neo/rest/v1/feed?start_date=2011-03-08&end_date=2011-03-08&detailed=true&api_key=t0TVs3DtDT2H8Oy2Zy8m2eVrNsAVKAexjcZXUckd"
  },
  "element_count" : 9,
  "near_earth_objects" : {
    "2011-03-08" : [ {
      "links" : {
        "self" : "https://api.nasa.gov/neo/rest/v1/neo/3559596?api_key=t0TVs3DtDT2H8Oy2Zy8m2eVrNsAVKAexjcZXUckd"
      },
      "neo_reference_id" : "3559596",
      "name" : "(2011 EM40)",
      "nasa_jpl_url" : "http://ssd.jpl.nasa.gov/sbdb.cgi?sstr=3559596",
      "absolute_magnitude_h" : 28.0,
      "estimated_diameter" : {
        "kilometers" : {
          "estimated_diameter_min" : 0.0066765941,
          "estimated_diameter_max" : 0.0149293183
        },
        "meters" : {
          "estimated_diameter_min" : 6.676594135,
          "estimated_diameter_max" : 14.9293183439
        },
        "miles" : {
          "estimated_diameter_min" : 0.004148642,
          "estimated_diameter_max" : 0.0092766455
        },
        "feet" : {
          "estimated_diameter_min" : 21.9048371017,
          "estimated_diameter_max" : 48.9807047955
        }
      },
      "is_potentially_hazardous_asteroid" : false,
      "close_approach_data" : [ {
        "close_approach_date" : "2011-03-08",
        "epoch_date_close_approach" : 1299571200000,
        "relative_velocity" : {
          "kilometers_per_second" : "10.7906428628",
          "kilometers_per_hour" : "38846.3143060746",
          "miles_per_hour" : "24137.589019794"
        },
        "miss_distance" : {
          "astronomical" : "0.0016158185",
          "lunar" : "0.6285533905",
          "kilometers" : "241723",
          "miles" : "150199.71875"
        },
        "orbiting_body" : "Earth"
      } ],
      "orbital_data" : {
        "orbit_id" : "8",
        "orbit_determination_date" : "2017-04-06 08:54:11",
        "orbit_uncertainty" : "7",
        "minimum_orbit_intersection" : ".00121086",
        "jupiter_tisserand_invariant" : "5.396",
        "epoch_osculation" : "2458000.5",
        "eccentricity" : ".3714095906483116",
        "semi_major_axis" : "1.150372390909404",
        "inclination" : ".5563053885399334",
        "ascending_node_longitude" : "174.1611315312461",
        "orbital_period" : "450.6673567798275",
        "perihelion_distance" : ".7231130521086228",
        "perihelion_argument" : "262.8366535493569",
        "aphelion_distance" : "1.577631729710185",
        "perihelion_time" : "2457821.335707612766",
        "mean_anomaly" : "143.1191860006739",
        "mean_motion" : ".7988153448084707",
        "equinox" : "J2000"
      }
    }, {
      "links" : {
        "self" : "https://api.nasa.gov/neo/rest/v1/neo/3559595?api_key=t0TVs3DtDT2H8Oy2Zy8m2eVrNsAVKAexjcZXUckd"
      },
      "neo_reference_id" : "3559595",
      "name" : "(2011 EL40)",
      "nasa_jpl_url" : "http://ssd.jpl.nasa.gov/sbdb.cgi?sstr=3559595",
      "absolute_magnitude_h" : 26.4,
      "estimated_diameter" : {
        "kilometers" : {
          "estimated_diameter_min" : 0.0139493823,
          "estimated_diameter_max" : 0.0311917671
        },
        "meters" : {
          "estimated_diameter_min" : 13.9493822934,
          "estimated_diameter_max" : 31.1917670523
        },
        "miles" : {
          "estimated_diameter_min" : 0.0086677416,
          "estimated_diameter_max" : 0.0193816595
        },
        "feet" : {
          "estimated_diameter_min" : 45.7656914036,
          "estimated_diameter_max" : 102.3351970157
        }
      },
      "is_potentially_hazardous_asteroid" : false,
      "close_approach_data" : [ {
        "close_approach_date" : "2011-03-08",
        "epoch_date_close_approach" : 1299571200000,
        "relative_velocity" : {
          "kilometers_per_second" : "17.8676101998",
          "kilometers_per_hour" : "64323.3967192127",
          "miles_per_hour" : "39968.0572558908"
        },
        "miss_distance" : {
          "astronomical" : "0.0084414313",
          "lunar" : "3.283716917",
          "kilometers" : "1262820.125",
          "miles" : "784680.0625"
        },
        "orbiting_body" : "Earth"
      } ],
      "orbital_data" : {
        "orbit_id" : "6",
        "orbit_determination_date" : "2017-04-06 08:54:11",
        "orbit_uncertainty" : "8",
        "minimum_orbit_intersection" : ".00668416",
        "jupiter_tisserand_invariant" : "3.103",
        "epoch_osculation" : "2455632.5",
        "eccentricity" : ".7063346155959693",
        "semi_major_axis" : "2.438661077782728",
        "inclination" : "1.351465067769131",
        "ascending_node_longitude" : "188.1764093233831",
        "orbital_period" : "1390.995090107213",
        "perihelion_distance" : ".7161503428382124",
        "perihelion_argument" : "267.9603007176042",
        "aphelion_distance" : "4.161171812727242",
        "perihelion_time" : "2455586.461162536040",
        "mean_anomaly" : "11.91519769185392",
        "mean_motion" : ".2588075274746314",
        "equinox" : "J2000"
      }
    }, {
      "links" : {
        "self" : "https://api.nasa.gov/neo/rest/v1/neo/3689349?api_key=t0TVs3DtDT2H8Oy2Zy8m2eVrNsAVKAexjcZXUckd"
      },
      "neo_reference_id" : "3689349",
      "name" : "(2014 SJ142)",
      "nasa_jpl_url" : "http://ssd.jpl.nasa.gov/sbdb.cgi?sstr=3689349",
      "absolute_magnitude_h" : 23.2,
      "estimated_diameter" : {
        "kilometers" : {
          "estimated_diameter_min" : 0.0608912622,
          "estimated_diameter_max" : 0.1361570015
        },
        "meters" : {
          "estimated_diameter_min" : 60.8912622106,
          "estimated_diameter_max" : 136.1570015386
        },
        "miles" : {
          "estimated_diameter_min" : 0.0378360645,
          "estimated_diameter_max" : 0.0846040122
        },
        "feet" : {
          "estimated_diameter_min" : 199.7744887109,
          "estimated_diameter_max" : 446.7093369279
        }
      },
      "is_potentially_hazardous_asteroid" : false,
      "close_approach_data" : [ {
        "close_approach_date" : "2011-03-08",
        "epoch_date_close_approach" : 1299571200000,
        "relative_velocity" : {
          "kilometers_per_second" : "13.4769053851",
          "kilometers_per_hour" : "48516.859386279",
          "miles_per_hour" : "30146.4896558799"
        },
        "miss_distance" : {
          "astronomical" : "0.013715636",
          "lunar" : "5.3353824615",
          "kilometers" : "2051830",
          "miles" : "1274948"
        },
        "orbiting_body" : "Earth"
      } ],
      "orbital_data" : {
        "orbit_id" : "13",
        "orbit_determination_date" : "2017-04-06 08:38:36",
        "orbit_uncertainty" : "7",
        "minimum_orbit_intersection" : ".00619496",
        "jupiter_tisserand_invariant" : "4.280",
        "epoch_osculation" : "2458000.5",
        "eccentricity" : ".5080188689432343",
        "semi_major_axis" : "1.558818245279435",
        "inclination" : "2.085689092444765",
        "ascending_node_longitude" : "336.6146842080856",
        "orbital_period" : "710.8723911488971",
        "perihelion_distance" : ".7669091634244992",
        "perihelion_argument" : "119.1652283613826",
        "aphelion_distance" : "2.350727327134371",
        "perihelion_time" : "2457714.543029017423",
        "mean_anomaly" : "144.8143307230583",
        "mean_motion" : ".5064200051688258",
        "equinox" : "J2000"
      }
    } ]
  }
}